GLOBALSTAR M045 [-]     
1 25676U 99019A   23277.76083872 -.00000064  00000+0  25732-3 0  9998
2 25676  51.9957 276.4005 0000962  58.8463 112.7755 12.27016417117108
GLOBALSTAR M019 [-]     
1 25677U 99019B   23277.76301427 -.00000009  00000+0  84792-3 0  9998
2 25677  51.9906   3.0491 0001438 132.6552  47.8068 12.13842983109673
GLOBALSTAR M044 [-]     
1 25678U 99019C   23277.89641502 -.00000045  00000+0  53999-3 0  9999
2 25678  51.9951 236.3141 0006198 284.7862 104.8664 11.90223168 97346
GLOBALSTAR M042 [-]     
1 25679U 99019D   23277.97111123 -.00000074  00000+0  17382-3 0  9998
2 25679  52.0043   4.6075 0003651 102.4215  68.8710 12.22047428109302
GLOBALSTAR M025 [-]     
1 25770U 99031A   23277.93376785 -.00000051  00000+0  49537-3 0  9999
2 25770  51.9795 158.4384 0001034 140.6961 232.2116 11.22545907411949
GLOBALSTAR M049 [-]     
1 25771U 99031B   23277.90258014 -.00000092  00000+0 -92036-3 0  9999
2 25771  51.9855 162.0502 0003584  52.5089 307.6033 11.12102052 48304
GLOBALSTAR M047 [-]     
1 25772U 99031C   23277.54869663 -.00000040  00000+0  82764-3 0  9997
2 25772  51.9818 219.2086 0016031 277.3638  82.5345 11.31915919400711
GLOBALSTAR M052 [-]     
1 25773U 99031D   23277.74746282 -.00000038  00000+0  94379-3 0  9993
2 25773  51.9848 279.8131 0002263 224.1837 306.5420 11.15046102409185
